CCSDS_OMM_VERS = 2.0
CREATION_DATE  = 
ORIGINATOR     = 

OBJECT_NAME    = STARLINK-36719
OBJECT_ID      = 2026-022A
CENTER_NAME    = EARTH
REF_FRAME      = TEME
TIME_SYSTEM    = UTC
MEAN_ELEMENT_THEORY = SGP/SGP4

EPOCH          = 2026-02-21T20:15:47.901024
MEAN_MOTION    = 15.75188773
ECCENTRICITY   = .00016072
INCLINATION    = 97.2841
RA_OF_ASC_NODE = 86.0268
ARG_OF_PERICENTER = 96.2537
MEAN_ANOMALY   = 263.8911

EPHEMERIS_TYPE = 0
CLASSIFICATION_TYPE = U
NORAD_CAT_ID   = 67648
ELEMENT_SET_NO = 999
REV_AT_EPOCH   = 305
BSTAR          = .96065114E-3
MEAN_MOTION_DOT = .14562E-2
MEAN_MOTION_DDOT = 0

CCSDS_OMM_VERS = 2.0
CREATION_DATE  = 
ORIGINATOR     = 

OBJECT_NAME    = STARLINK-36342
OBJECT_ID      = 2026-022B
CENTER_NAME    = EARTH
REF_FRAME      = TEME
TIME_SYSTEM    = UTC
MEAN_ELEMENT_THEORY = SGP/SGP4

EPOCH          = 2026-02-21T20:14:46.070592
MEAN_MOTION    = 15.75156447
ECCENTRICITY   = .00008684
INCLINATION    = 97.2844
RA_OF_ASC_NODE = 86.0273
ARG_OF_PERICENTER = 121.7594
MEAN_ANOMALY   = 238.3756

EPHEMERIS_TYPE = 0
CLASSIFICATION_TYPE = U
NORAD_CAT_ID   = 67649
ELEMENT_SET_NO = 999
REV_AT_EPOCH   = 305
BSTAR          = .65662246E-3
MEAN_MOTION_DOT = .98805E-3
MEAN_MOTION_DDOT = 0

CCSDS_OMM_VERS = 2.0
CREATION_DATE  = 
ORIGINATOR     = 

OBJECT_NAME    = STARLINK-36703
OBJECT_ID      = 2026-022C
CENTER_NAME    = EARTH
REF_FRAME      = TEME
TIME_SYSTEM    = UTC
MEAN_ELEMENT_THEORY = SGP/SGP4

EPOCH          = 2026-02-21T20:13:14.097792
MEAN_MOTION    = 15.75187205
ECCENTRICITY   = .00014534
INCLINATION    = 97.2842
RA_OF_ASC_NODE = 86.0288
ARG_OF_PERICENTER = 94.8895
MEAN_ANOMALY   = 265.2536

EPHEMERIS_TYPE = 0
CLASSIFICATION_TYPE = U
NORAD_CAT_ID   = 67650
ELEMENT_SET_NO = 999
REV_AT_EPOCH   = 305
BSTAR          = -.5674063E-5
MEAN_MOTION_DOT = -.976E-5
MEAN_MOTION_DDOT = 0

CCSDS_OMM_VERS = 2.0
CREATION_DATE  = 
ORIGINATOR     = 

OBJECT_NAME    = STARLINK-36696
OBJECT_ID      = 2026-022D
CENTER_NAME    = EARTH
REF_FRAME      = TEME
TIME_SYSTEM    = UTC
MEAN_ELEMENT_THEORY = SGP/SGP4

EPOCH          = 2026-02-21T20:10:43.202784
MEAN_MOTION    = 15.75202252
ECCENTRICITY   = .0001369
INCLINATION    = 97.2846
RA_OF_ASC_NODE = 86.0313
ARG_OF_PERICENTER = 119.8378
MEAN_ANOMALY   = 240.3023

EPHEMERIS_TYPE = 0
CLASSIFICATION_TYPE = U
NORAD_CAT_ID   = 67651
ELEMENT_SET_NO = 999
REV_AT_EPOCH   = 305
BSTAR          = .74462148E-3
MEAN_MOTION_DOT = .112468E-2
MEAN_MOTION_DDOT = 0

CCSDS_OMM_VERS = 2.0
CREATION_DATE  = 
ORIGINATOR     = 

OBJECT_NAME    = STARLINK-36699
OBJECT_ID      = 2026-022E
CENTER_NAME    = EARTH
REF_FRAME      = TEME
TIME_SYSTEM    = UTC
MEAN_ELEMENT_THEORY = SGP/SGP4

EPOCH          = 2026-02-21T20:09:42.242400
MEAN_MOTION    = 15.75205397
ECCENTRICITY   = .00014893
INCLINATION    = 97.2843
RA_OF_ASC_NODE = 86.0323
ARG_OF_PERICENTER = 108.9236
MEAN_ANOMALY   = 251.2191

EPHEMERIS_TYPE = 0
CLASSIFICATION_TYPE = U
NORAD_CAT_ID   = 67652
ELEMENT_SET_NO = 999
REV_AT_EPOCH   = 305
BSTAR          = .7254894E-3
MEAN_MOTION_DOT = .109553E-2
MEAN_MOTION_DDOT = 0

CCSDS_OMM_VERS = 2.0
CREATION_DATE  = 
ORIGINATOR     = 

OBJECT_NAME    = STARLINK-36694
OBJECT_ID      = 2026-022F
CENTER_NAME    = EARTH
REF_FRAME      = TEME
TIME_SYSTEM    = UTC
MEAN_ELEMENT_THEORY = SGP/SGP4

EPOCH          = 2026-02-21T21:38:07.906560
MEAN_MOTION    = 15.75249738
ECCENTRICITY   = .00010401
INCLINATION    = 97.2840
RA_OF_ASC_NODE = 86.1021
ARG_OF_PERICENTER = 96.8764
MEAN_ANOMALY   = 263.2620

EPHEMERIS_TYPE = 0
CLASSIFICATION_TYPE = U
NORAD_CAT_ID   = 67653
ELEMENT_SET_NO = 999
REV_AT_EPOCH   = 306
BSTAR          = .12848307E-2
MEAN_MOTION_DOT = .196491E-2
MEAN_MOTION_DDOT = 0

CCSDS_OMM_VERS = 2.0
CREATION_DATE  = 
ORIGINATOR     = 

OBJECT_NAME    = STARLINK-36620
OBJECT_ID      = 2026-022G
CENTER_NAME    = EARTH
REF_FRAME      = TEME
TIME_SYSTEM    = UTC
MEAN_ELEMENT_THEORY = SGP/SGP4

EPOCH          = 2026-02-21T21:37:37.412544
MEAN_MOTION    = 15.75239912
ECCENTRICITY   = .00009523
INCLINATION    = 97.2844
RA_OF_ASC_NODE = 86.1014
ARG_OF_PERICENTER = 74.6145
MEAN_ANOMALY   = 285.5226

EPHEMERIS_TYPE = 0
CLASSIFICATION_TYPE = U
NORAD_CAT_ID   = 67654
ELEMENT_SET_NO = 999
REV_AT_EPOCH   = 306
BSTAR          = .10687053E-2
MEAN_MOTION_DOT = .162697E-2
MEAN_MOTION_DDOT = 0

CCSDS_OMM_VERS = 2.0
CREATION_DATE  = 
ORIGINATOR     = 

OBJECT_NAME    = STARLINK-36720
OBJECT_ID      = 2026-022H
CENTER_NAME    = EARTH
REF_FRAME      = TEME
TIME_SYSTEM    = UTC
MEAN_ELEMENT_THEORY = SGP/SGP4

EPOCH          = 2026-02-21T20:03:36.184608
MEAN_MOTION    = 15.75193840
ECCENTRICITY   = .00016363
INCLINATION    = 97.2845
RA_OF_ASC_NODE = 86.0378
ARG_OF_PERICENTER = 115.5450
MEAN_ANOMALY   = 244.5985

EPHEMERIS_TYPE = 0
CLASSIFICATION_TYPE = U
NORAD_CAT_ID   = 67655
ELEMENT_SET_NO = 999
REV_AT_EPOCH   = 305
BSTAR          = .48397172E-3
MEAN_MOTION_DOT = .72688E-3
MEAN_MOTION_DDOT = 0

CCSDS_OMM_VERS = 2.0
CREATION_DATE  = 
ORIGINATOR     = 

OBJECT_NAME    = STARLINK-36688
OBJECT_ID      = 2026-022J
CENTER_NAME    = EARTH
REF_FRAME      = TEME
TIME_SYSTEM    = UTC
MEAN_ELEMENT_THEORY = SGP/SGP4

EPOCH          = 2026-02-21T21:34:04.185120
MEAN_MOTION    = 15.75197430
ECCENTRICITY   = .00014605
INCLINATION    = 97.2846
RA_OF_ASC_NODE = 86.1046
ARG_OF_PERICENTER = 73.8086
MEAN_ANOMALY   = 286.3340

EPHEMERIS_TYPE = 0
CLASSIFICATION_TYPE = U
NORAD_CAT_ID   = 67656
ELEMENT_SET_NO = 999
REV_AT_EPOCH   = 306
BSTAR          = .6553142E-3
MEAN_MOTION_DOT = .98784E-3
MEAN_MOTION_DDOT = 0

CCSDS_OMM_VERS = 2.0
CREATION_DATE  = 
ORIGINATOR     = 

OBJECT_NAME    = STARLINK-36706
OBJECT_ID      = 2026-022K
CENTER_NAME    = EARTH
REF_FRAME      = TEME
TIME_SYSTEM    = UTC
MEAN_ELEMENT_THEORY = SGP/SGP4

EPOCH          = 2026-02-21T21:32:02.167584
MEAN_MOTION    = 15.75223046
ECCENTRICITY   = .00012728
INCLINATION    = 97.2847
RA_OF_ASC_NODE = 86.1058
ARG_OF_PERICENTER = 75.1572
MEAN_ANOMALY   = 284.9834

EPHEMERIS_TYPE = 0
CLASSIFICATION_TYPE = U
NORAD_CAT_ID   = 67657
ELEMENT_SET_NO = 999
REV_AT_EPOCH   = 306
BSTAR          = .98793344E-3
MEAN_MOTION_DOT = .150058E-2
MEAN_MOTION_DDOT = 0

CCSDS_OMM_VERS = 2.0
CREATION_DATE  = 
ORIGINATOR     = 

OBJECT_NAME    = STARLINK-36701
OBJECT_ID      = 2026-022L
CENTER_NAME    = EARTH
REF_FRAME      = TEME
TIME_SYSTEM    = UTC
MEAN_ELEMENT_THEORY = SGP/SGP4

EPOCH          = 2026-02-21T19:59:01.841280
MEAN_MOTION    = 15.75199971
ECCENTRICITY   = .00013401
INCLINATION    = 97.2849
RA_OF_ASC_NODE = 86.0408
ARG_OF_PERICENTER = 70.5050
MEAN_ANOMALY   = 289.6360

EPHEMERIS_TYPE = 0
CLASSIFICATION_TYPE = U
NORAD_CAT_ID   = 67658
ELEMENT_SET_NO = 999
REV_AT_EPOCH   = 305
BSTAR          = .63084225E-3
MEAN_MOTION_DOT = .95059E-3
MEAN_MOTION_DDOT = 0

CCSDS_OMM_VERS = 2.0
CREATION_DATE  = 
ORIGINATOR     = 

OBJECT_NAME    = STARLINK-36642
OBJECT_ID      = 2026-022M
CENTER_NAME    = EARTH
REF_FRAME      = TEME
TIME_SYSTEM    = UTC
MEAN_ELEMENT_THEORY = SGP/SGP4

EPOCH          = 2026-02-21T21:28:59.277792
MEAN_MOTION    = 15.75220603
ECCENTRICITY   = .0001375
INCLINATION    = 97.2846
RA_OF_ASC_NODE = 86.1099
ARG_OF_PERICENTER = 86.6708
MEAN_ANOMALY   = 273.4715

EPHEMERIS_TYPE = 0
CLASSIFICATION_TYPE = U
NORAD_CAT_ID   = 67659
ELEMENT_SET_NO = 999
REV_AT_EPOCH   = 306
BSTAR          = .10015666E-2
MEAN_MOTION_DOT = .152152E-2
MEAN_MOTION_DDOT = 0

