STARLINK-36719          
1 67648U 26022A   26052.84430441  .00145620  00000+0  96065-3 0  9992
2 67648  97.2841  86.0268 0001607  96.2537 263.8911 15.75188773  3050
STARLINK-36342          
1 67649U 26022B   26052.84358878  .00098805  00000+0  65662-3 0  9997
2 67649  97.2844  86.0273 0000868 121.7594 238.3756 15.75156447  3052
STARLINK-36703          
1 67650U 26022C   26052.84252428 -.00000976  00000+0 -56741-5 0  9997
2 67650  97.2842  86.0288 0001453  94.8895 265.2536 15.75187205  3054
STARLINK-36696          
1 67651U 26022D   26052.84077781  .00112468  00000+0  74462-3 0  9991
2 67651  97.2846  86.0313 0001369 119.8378 240.3023 15.75202252  3053
STARLINK-36699          
1 67652U 26022E   26052.84007225  .00109553  00000+0  72549-3 0  9993
2 67652  97.2843  86.0323 0001489 108.9236 251.2191 15.75205397  3057
STARLINK-36694          
1 67653U 26022F   26052.90148040  .00196491  00000+0  12848-2 0  9994
2 67653  97.2840  86.1021 0001040  96.8764 263.2620 15.75249738  3063
STARLINK-36620          
1 67654U 26022G   26052.90112746  .00162697  00000+0  10687-2 0  9999
2 67654  97.2844  86.1014 0000952  74.6145 285.5226 15.75239912  3060
STARLINK-36720          
1 67655U 26022H   26052.83583547  .00072688  00000+0  48397-3 0  9993
2 67655  97.2845  86.0378 0001636 115.5450 244.5985 15.75193840  3053
STARLINK-36688          
1 67656U 26022J   26052.89865955  .00098784  00000+0  65531-3 0  9990
2 67656  97.2846  86.1046 0001460  73.8086 286.3340 15.75197430  3063
STARLINK-36706          
1 67657U 26022K   26052.89724731  .00150058  00000+0  98793-3 0  9996
2 67657  97.2847  86.1058 0001272  75.1572 284.9834 15.75223046  3069
STARLINK-36701          
1 67658U 26022L   26052.83266020  .00095059  00000+0  63084-3 0  9997
2 67658  97.2849  86.0408 0001340  70.5050 289.6360 15.75199971  3050
STARLINK-36642          
1 67659U 26022M   26052.89513053  .00152152  00000+0  10016-2 0  9999
2 67659  97.2846  86.1099 0001375  86.6708 273.4715 15.75220603  3064
